[{"OBJECT_NAME":"STARLINK-32609","OBJECT_ID":"2024-207T","EPOCH":"2026-03-09T13:28:48.920448","MEAN_MOTION":15.27585596,"ECCENTRICITY":0.00036122,"INCLINATION":42.9994,"RA_OF_ASC_NODE":282.3633,"ARG_OF_PERICENTER":297.0626,"MEAN_ANOMALY":62.9857,"EPHEMERIS_TYPE":0,"CLASSIFICATION_TYPE":"U","NORAD_CAT_ID":61929,"ELEMENT_SET_NO":999,"REV_AT_EPOCH":7470,"BSTAR":0.0010394578,"MEAN_MOTION_DOT":0.0002846,"MEAN_MOTION_DDOT":0},{"OBJECT_NAME":"OKEAN-1","OBJECT_ID":"1988-056A","EPOCH":"2026-03-09T21:19:04.260000","MEAN_MOTION":15.31672069,"ECCENTRICITY":0.00129431,"INCLINATION":82.4671,"RA_OF_ASC_NODE":262.7586,"ARG_OF_PERICENTER":168.0696,"MEAN_ANOMALY":192.0855,"EPHEMERIS_TYPE":0,"CLASSIFICATION_TYPE":"U","NORAD_CAT_ID":19274,"ELEMENT_SET_NO":999,"REV_AT_EPOCH":3511,"BSTAR":0.00038371192,"MEAN_MOTION_DOT":0.00011798,"MEAN_MOTION_DDOT":0}]
